start=new Date('2023-01-27T00:00:00.000Z').valueOf();
sats=[{"NORAD_CAT_ID":"47400","LAUNCH_DATE":"2021-01-20","CENTER_NAME":"EARTH","OBJECT_ID":"2021-005BD","MEAN_MOTION_DDOT":"0.0000000000000","EPOCH":"2023-01-26T12:48:08.601696","SITE":"AFETR","ELEMENT_SET_NO":"999","FILE":"3761992","INCLINATION":"53.0540","ECCENTRICITY":"0.00012310","TLE_LINE2":"2 47400  53.0540  91.0168 0001231 102.2824 257.8303 15.06407713112056","REF_FRAME":"TEME","PERIOD":"95.592","ARG_OF_PERICENTER":"102.2824","MEAN_ANOMALY":"257.8303","MEAN_ELEMENT_THEORY":"SGP4","MEAN_MOTION_DOT":"0.00000362","EPHEMERIS_TYPE":"0","GP_ID":"223761530","RCS_SIZE":"LARGE","RA_OF_ASC_NODE":"91.0168","DECAY_DATE":null,"PERIAPSIS":"546.337","BSTAR":"0.00004319300000","APOAPSIS":"548.042","TLE_LINE1":"1 47400U 21005BD  23026.53343289  .00000362  00000-0  43193-4 0  9998","TIME_SYSTEM":"UTC","OBJECT_NAME":"STARLINK-2122","OBJECT_TYPE":"PAYLOAD","CLASSIFICATION_TYPE":"U","COUNTRY_CODE":"US","REV_AT_EPOCH":"11205","SEMIMAJOR_AXIS":"6925.325","MEAN_MOTION":"15.06407713"},{"MEAN_MOTION":"15.06405987","REV_AT_EPOCH":"11190","SEMIMAJOR_AXIS":"6925.330","CLASSIFICATION_TYPE":"U","COUNTRY_CODE":"US","OBJECT_NAME":"STARLINK-2123","OBJECT_TYPE":"PAYLOAD","APOAPSIS":"548.184","TLE_LINE1":"1 47401U 21005BE  23026.41825204  .00003564  00000-0  25798-3 0  9995","TIME_SYSTEM":"UTC","DECAY_DATE":null,"PERIAPSIS":"546.206","RA_OF_ASC_NODE":"101.5260","BSTAR":"0.00025798000000","EPHEMERIS_TYPE":"0","GP_ID":"223755598","RCS_SIZE":"LARGE","MEAN_ELEMENT_THEORY":"SGP4","MEAN_MOTION_DOT":"0.00003564","PERIOD":"95.592","ARG_OF_PERICENTER":"82.0420","MEAN_ANOMALY":"278.0731","FILE":"3761951","INCLINATION":"53.0528","TLE_LINE2":"2 47401  53.0528 101.5260 0001428  82.0420 278.0731 15.06405987111902","ECCENTRICITY":"0.00014280","REF_FRAME":"TEME","ELEMENT_SET_NO":"999","SITE":"AFETR","CENTER_NAME":"EARTH","MEAN_MOTION_DDOT":"0.0000000000000","OBJECT_ID":"2021-005BE","EPOCH":"2023-01-26T10:02:16.976256","NORAD_CAT_ID":"47401","LAUNCH_DATE":"2021-01-20"},{"MEAN_MOTION":"15.06406262","SEMIMAJOR_AXIS":"6925.329","REV_AT_EPOCH":"11190","COUNTRY_CODE":"US","CLASSIFICATION_TYPE":"U","OBJECT_TYPE":"PAYLOAD","OBJECT_NAME":"STARLINK-2124","TIME_SYSTEM":"UTC","TLE_LINE1":"1 47402U 21005BF  23026.43668367  .00004499  00000-0  32065-3 0  9996","APOAPSIS":"548.243","BSTAR":"0.00032065000000","DECAY_DATE":null,"RA_OF_ASC_NODE":"101.4481","PERIAPSIS":"546.146","RCS_SIZE":"LARGE","GP_ID":"223755826","EPHEMERIS_TYPE":"0","MEAN_MOTION_DOT":"0.00004499","MEAN_ELEMENT_THEORY":"SGP4","MEAN_ANOMALY":"274.0457","PERIOD":"95.592","ARG_OF_PERICENTER":"86.0705","TLE_LINE2":"2 47402  53.0526 101.4481 0001514  86.0705 274.0457 15.06406262111909","ECCENTRICITY":"0.00015140","REF_FRAME":"TEME","FILE":"3761951","INCLINATION":"53.0526","ELEMENT_SET_NO":"999","SITE":"AFETR","EPOCH":"2023-01-26T10:28:49.469088","MEAN_MOTION_DDOT":"0.0000000000000","OBJECT_ID":"2021-005BF","CENTER_NAME":"EARTH","LAUNCH_DATE":"2021-01-20","NORAD_CAT_ID":"47402"},{"CLASSIFICATION_TYPE":"U","COUNTRY_CODE":"US","OBJECT_NAME":"STARLINK-2127","OBJECT_TYPE":"PAYLOAD","MEAN_MOTION":"15.06410891","REV_AT_EPOCH":"11252","SEMIMAJOR_AXIS":"6925.315","EPHEMERIS_TYPE":"0","RCS_SIZE":"LARGE","GP_ID":"223732156","MEAN_ELEMENT_THEORY":"SGP4","MEAN_MOTION_DOT":"0.00005027","APOAPSIS":"548.094","TIME_SYSTEM":"UTC","TLE_LINE1":"1 47403U 21005BG  23026.51040067  .00005027  00000-0  35604-3 0  9997","DECAY_DATE":null,"RA_OF_ASC_NODE":"101.1057","PERIAPSIS":"546.267","BSTAR":"0.00035604000000","ELEMENT_SET_NO":"999","PERIOD":"95.591","ARG_OF_PERICENTER":"83.5419","MEAN_ANOMALY":"276.5720","FILE":"3761866","INCLINATION":"53.0526","TLE_LINE2":"2 47403  53.0526 101.1057 0001319  83.5419 276.5720 15.06410891112525","REF_FRAME":"TEME","ECCENTRICITY":"0.00013190","NORAD_CAT_ID":"47403","LAUNCH_DATE":"2021-01-20","SITE":"AFETR","OBJECT_ID":"2021-005BG","MEAN_MOTION_DDOT":"0.0000000000000","CENTER_NAME":"EARTH","EPOCH":"2023-01-26T12:14:58.617888"},{"ECCENTRICITY":"0.00011730","TLE_LINE2":"2 47404  53.0513 101.1275 0001173  82.3015 277.8107 15.06409178112520","REF_FRAME":"TEME","INCLINATION":"53.0513","FILE":"3761866","MEAN_ANOMALY":"277.8107","PERIOD":"95.592","ARG_OF_PERICENTER":"82.3015","ELEMENT_SET_NO":"999","EPOCH":"2023-01-26T12:09:40.199328","OBJECT_ID":"2021-005BH","MEAN_MOTION_DDOT":"0.0000000000000","CENTER_NAME":"EARTH","SITE":"AFETR","LAUNCH_DATE":"2021-01-20","NORAD_CAT_ID":"47404","SEMIMAJOR_AXIS":"6925.320","REV_AT_EPOCH":"11252","MEAN_MOTION":"15.06409178","OBJECT_TYPE":"PAYLOAD","OBJECT_NAME":"STARLINK-2128","CLASSIFICATION_TYPE":"U","COUNTRY_CODE":"US","BSTAR":"0.00032051000000","DECAY_DATE":null,"PERIAPSIS":"546.373","RA_OF_ASC_NODE":"101.1275","TIME_SYSTEM":"UTC","TLE_LINE1":"1 47404U 21005BH  23026.50671527  .00004497  00000-0  32051-3 0  9991","APOAPSIS":"547.998","MEAN_MOTION_DOT":"0.00004497","MEAN_ELEMENT_THEORY":"SGP4","RCS_SIZE":"LARGE","GP_ID":"223732143","EPHEMERIS_TYPE":"0"},{"ELEMENT_SET_NO":"999","PERIOD":"95.593","ARG_OF_PERICENTER":"95.6610","MEAN_ANOMALY":"264.4543","FILE":"3761866","INCLINATION":"53.0538","ECCENTRICITY":"0.00014400","TLE_LINE2":"2 47405  53.0538 130.9075 0001440  95.6610 264.4543 15.06391742111499","REF_FRAME":"TEME","NORAD_CAT_ID":"47405","LAUNCH_DATE":"2021-01-20","SITE":"AFETR","OBJECT_ID":"2021-005BJ","MEAN_MOTION_DDOT":"0.0000000000000","CENTER_NAME":"EARTH","EPOCH":"2023-01-26T13:19:59.446560","CLASSIFICATION_TYPE":"U","COUNTRY_CODE":"US","OBJECT_NAME":"STARLINK-2130","OBJECT_TYPE":"PAYLOAD","MEAN_MOTION":"15.06391742","REV_AT_EPOCH":"11149","SEMIMAJOR_AXIS":"6925.374","EPHEMERIS_TYPE":"0","GP_ID":"223732154","RCS_SIZE":"LARGE","MEAN_ELEMENT_THEORY":"SGP4","MEAN_MOTION_DOT":"-0.00002896","APOAPSIS":"548.236","TIME_SYSTEM":"UTC","TLE_LINE1":"1 47405U 21005BJ  23026.55554915 -.00002896  00000-0 -17561-3 0  9990","DECAY_DATE":null,"PERIAPSIS":"546.242","RA_OF_ASC_NODE":"130.9075","BSTAR":"-0.00017561000000"},{"NORAD_CAT_ID":"47406","LAUNCH_DATE":"2021-01-20","MEAN_MOTION_DDOT":"0.0000000000000","OBJECT_ID":"2021-005BK","CENTER_NAME":"EARTH","EPOCH":"2023-01-26T12:25:35.525856","SITE":"AFETR","ELEMENT_SET_NO":"999","INCLINATION":"53.0517","FILE":"3761866","TLE_LINE2":"2 47406  53.0517 101.0760 0001152  98.3603 261.7517 15.06410667112534","REF_FRAME":"TEME","ECCENTRICITY":"0.00011520","PERIOD":"95.591","ARG_OF_PERICENTER":"98.3603","MEAN_ANOMALY":"261.7517","MEAN_ELEMENT_THEORY":"SGP4","MEAN_MOTION_DOT":"0.00009332","EPHEMERIS_TYPE":"0","GP_ID":"223732170","RCS_SIZE":"LARGE","PERIAPSIS":"546.383","DECAY_DATE":null,"RA_OF_ASC_NODE":"101.0760","BSTAR":"0.00064436000000","APOAPSIS":"547.979","TIME_SYSTEM":"UTC","TLE_LINE1":"1 47406U 21005BK  23026.51777229  .00009332  00000-0  64436-3 0  9995","OBJECT_NAME":"STARLINK-2133","OBJECT_TYPE":"PAYLOAD","CLASSIFICATION_TYPE":"U","COUNTRY_CODE":"US","REV_AT_EPOCH":"11253","SEMIMAJOR_AXIS":"6925.316","MEAN_MOTION":"15.06410667"},{"SEMIMAJOR_AXIS":"6925.333","REV_AT_EPOCH":"11191","MEAN_MOTION":"15.06405180","OBJECT_TYPE":"PAYLOAD","OBJECT_NAME":"STARLINK-2134","CLASSIFICATION_TYPE":"U","COUNTRY_CODE":"US","BSTAR":"0.00015272000000","RA_OF_ASC_NODE":"101.0497","DECAY_DATE":null,"PERIAPSIS":"545.939","TIME_SYSTEM":"UTC","TLE_LINE1":"1 47407U 21005BL  23026.52514390  .00001994  00000-0  15272-3 0  9995","APOAPSIS":"548.456","MEAN_MOTION_DOT":"0.00001994","MEAN_ELEMENT_THEORY":"SGP4","RCS_SIZE":"LARGE","GP_ID":"223754597","EPHEMERIS_TYPE":"0","TLE_LINE2":"2 47407  53.0544 101.0497 0001817  55.0185 305.0975 15.06405180111910","ECCENTRICITY":"0.00018170","REF_FRAME":"TEME","FILE":"3761951","INCLINATION":"53.0544","MEAN_ANOMALY":"305.0975","ARG_OF_PERICENTER":"55.0185","PERIOD":"95.592","ELEMENT_SET_NO":"999","EPOCH":"2023-01-26T12:36:12.432960","MEAN_MOTION_DDOT":"0.0000000000000","OBJECT_ID":"2021-005BL","CENTER_NAME":"EARTH","SITE":"AFETR","LAUNCH_DATE":"2021-01-20","NORAD_CAT_ID":"47407"},{"EPHEMERIS_TYPE":"0","RCS_SIZE":"LARGE","GP_ID":"223765921","MEAN_ELEMENT_THEORY":"SGP4","MEAN_MOTION_DOT":"0.00001002","APOAPSIS":"548.161","TIME_SYSTEM":"UTC","TLE_LINE1":"1 47408U 21005BM  23026.89374330  .00001002  00000-0  86152-4 0  9990","DECAY_DATE":null,"PERIAPSIS":"546.269","RA_OF_ASC_NODE":"99.3883","BSTAR":"0.00008615200000","CLASSIFICATION_TYPE":"U","COUNTRY_CODE":"US","OBJECT_NAME":"STARLINK-2135","OBJECT_TYPE":"PAYLOAD","MEAN_MOTION":"15.06399525","REV_AT_EPOCH":"11258","SEMIMAJOR_AXIS":"6925.350","NORAD_CAT_ID":"47408","LAUNCH_DATE":"2021-01-20","SITE":"AFETR","MEAN_MOTION_DDOT":"0.0000000000000","OBJECT_ID":"2021-005BM","CENTER_NAME":"EARTH","EPOCH":"2023-01-26T21:26:59.421120","ELEMENT_SET_NO":"999","ARG_OF_PERICENTER":"75.0527","PERIOD":"95.592","MEAN_ANOMALY":"285.0613","INCLINATION":"53.0521","FILE":"3762192","ECCENTRICITY":"0.00013660","TLE_LINE2":"2 47408  53.0521  99.3883 0001366  75.0527 285.0613 15.06399525112580","REF_FRAME":"TEME"},{"GP_ID":"223767443","RCS_SIZE":"LARGE","EPHEMERIS_TYPE":"0","MEAN_MOTION_DOT":"0.00000988","MEAN_ELEMENT_THEORY":"SGP4","TIME_SYSTEM":"UTC","TLE_LINE1":"1 47548U 21009A   23026.83292233  .00000988  00000-0  85214-4 0  9994","APOAPSIS":"548.237","BSTAR":"0.00008521400000","RA_OF_ASC_NODE":"79.6628","DECAY_DATE":null,"PERIAPSIS":"546.212","CLASSIFICATION_TYPE":"U","COUNTRY_CODE":"US","OBJECT_TYPE":"PAYLOAD","OBJECT_NAME":"STARLINK-1782","MEAN_MOTION":"15.06396527","SEMIMAJOR_AXIS":"6925.359","REV_AT_EPOCH":"11003","LAUNCH_DATE":"2021-02-04","NORAD_CAT_ID":"47548","SITE":"AFETR","EPOCH":"2023-01-26T19:59:24.489312","MEAN_MOTION_DDOT":"0.0000000000000","OBJECT_ID":"2021-009A","CENTER_NAME":"EARTH","ELEMENT_SET_NO":"999","MEAN_ANOMALY":"262.6977","PERIOD":"95.592","ARG_OF_PERICENTER":"97.4178","TLE_LINE2":"2 47548  53.0538  79.6628 0001462  97.4178 262.6977 15.06396527110039","ECCENTRICITY":"0.00014620","REF_FRAME":"TEME","FILE":"3762250","INCLINATION":"53.0538"}];
